[{"OBJECT_NAME":"JILIN-1 GAOFEN 03D47","OBJECT_ID":"2022-167L","EPOCH":"2026-03-09T22:56:46.924224","MEAN_MOTION":15.31686941,"ECCENTRICITY":0.00089304,"INCLINATION":97.6835,"RA_OF_ASC_NODE":234.6581,"ARG_OF_PERICENTER":110.4031,"MEAN_ANOMALY":249.8169,"EPHEMERIS_TYPE":0,"CLASSIFICATION_TYPE":"U","NORAD_CAT_ID":54692,"ELEMENT_SET_NO":999,"REV_AT_EPOCH":18014,"BSTAR":0.00047294748,"MEAN_MOTION_DOT":0.00014417,"MEAN_MOTION_DDOT":0},{"OBJECT_NAME":"STARLINK-35847","OBJECT_ID":"2025-271E","EPOCH":"2026-03-09T11:49:00.027552","MEAN_MOTION":15.30195077,"ECCENTRICITY":0.00010077,"INCLINATION":53.1575,"RA_OF_ASC_NODE":141.0478,"ARG_OF_PERICENTER":81.261,"MEAN_ANOMALY":278.8505,"EPHEMERIS_TYPE":0,"CLASSIFICATION_TYPE":"U","NORAD_CAT_ID":66621,"ELEMENT_SET_NO":999,"REV_AT_EPOCH":1753,"BSTAR":0.00076012104,"MEAN_MOTION_DOT":0.00022217,"MEAN_MOTION_DDOT":0}]
